FENGYUN 1C DEB          
1 32338U 99025CYF 17342.51903744  .00000707  00000-0  27380-3 0  9991
2 32338  98.8249  91.0230 0071128 279.7298  79.5857 14.31895109539299
